sat04327
1 04327U 70009A   20046.79210106 -.00000059  00000-0 -24787-4 0  9998
2 04327  99.2134 101.5506 0005700  80.0741  54.9510 13.58494061479270
